NORAD_CAT_ID,OBJECT_NAME,OBJECT_TYPE,EPOCH,MEAN_MOTION,ECCENTRICITY,INCLINATION,RA_OF_ASC_NODE,ARG_OF_PERICENTER,MEAN_ANOMALY,BSTAR,MEAN_MOTION_DOT,MEAN_MOTION_DDOT,TLE_LINE0,TLE_LINE1,TLE_LINE2,SEMIMAJOR_AXIS,PERIOD,APOGEE,PERIGEE,DECAYED
49458.0,STARLINK-3156,PAYLOAD,2022-12-17 01:19:46,15.08830254,0.0002725,53.2147,110.2201,48.2449,311.8776,-3.4888e-05,-8.44e-06,0.0,0 STARLINK-3156,1 49458U 21104BC  22351.05540404 -.00000844  00000-0 -34888-4 0  9996,2 49458  53.2147 110.2201 0002725  48.2449 311.8776 15.08830254 61925,6917.91,95.438,541.66,537.89,0.0
49458.0,STARLINK-3156,PAYLOAD,2022-12-17 12:27:28,15.08841431,0.0002745,53.2159,108.1395,51.1887,308.935,6.2768e-05,7.11e-06,0.0,0 STARLINK-3156,1 49458U 21104BC  22351.51907684  .00000711  00000-0  62768-4 0  9993,2 49458  53.2159 108.1395 0002745  51.1887 308.9350 15.08841431 60911,6917.876,95.437,541.64,537.842,0.0
49458.0,STARLINK-3156,PAYLOAD,2022-12-17 15:38:14,15.08844272,0.000263,53.2165,107.5446,46.8503,313.2708,2.4566e-05,1.03e-06,0.0,0 STARLINK-3156,1 49458U 21104BC  22351.65155588  .00000103  00000-0  24566-4 0  9995,2 49458  53.2165 107.5446 0002630  46.8503 313.2708 15.08844272 62012,6917.8669999999975,95.437,541.552,537.913,0.0
49458.0,STARLINK-3156,PAYLOAD,2022-12-18 01:10:34,15.08831868,0.0002656,53.2158,105.7607,46.2605,313.8606,-9.7602e-05,-1.841e-05,0.0,0 STARLINK-3156,1 49458U 21104BC  22352.04900833 -.00001841  00000-0 -97602-4 0  9993,2 49458  53.2158 105.7607 0002656  46.2605 313.8606 15.08831868 62074,6917.905,95.438,541.6080000000002,537.933,0.0
49458.0,STARLINK-3156,PAYLOAD,2022-12-18 17:04:25,15.088312599999998,0.0002688,53.2155,102.7857,48.2805,311.8416,4.3989e-05,4.12e-06,0.0,0 STARLINK-3156,1 49458U 21104BC  22352.71141114  .00000412  00000-0  43989-4 0  9996,2 49458  53.2155 102.7857 0002688  48.2805 311.8416 15.08831260 61098,6917.906999999997,95.438,541.632,537.913,0.0
49458.0,STARLINK-3156,PAYLOAD,2022-12-19 01:01:21,15.08831517,0.0002744,53.2161,101.2989,48.5768,311.546,9.5632e-05,1.234e-05,0.0,0 STARLINK-3156,1 49458U 21104BC  22353.04261185  .00001234  00000-0  95632-4 0  9999,2 49458  53.2161 101.2989 0002744  48.5768 311.5460 15.08831517 61146,6917.906,95.438,541.67,537.873,0.0
49458.0,STARLINK-3156,PAYLOAD,2022-12-19 18:30:34,15.08856567,0.0002588,53.2158,98.028,49.3608,310.7609,0.00019672,2.845e-05,0.0,0 STARLINK-3156,1 49458U 21104BC  22353.77123467  .00002845  00000-0  19672-3 0  9997,2 49458  53.2158  98.0280 0002588  49.3608 310.7609 15.08856567 61257,6917.83,95.437,541.485,537.904,0.0
49458.0,STARLINK-3156,PAYLOAD,2022-12-20 07:13:41,15.0883262,0.0002555,53.2162,95.6474,55.9507,304.1727,0.00014098,1.956e-05,0.0,0 STARLINK-3156,1 49458U 21104BC  22354.30117587  .00001956  00000-0  14098-3 0  9992,2 49458  53.2162  95.6474 0002555  55.9507 304.1727 15.08832620 62416,6917.903,95.438,541.535,538.0,0.0
49458.0,STARLINK-3156,PAYLOAD,2022-12-20 13:35:13,15.08842308,0.0002582,53.2152,94.4584,54.8745,305.2489,0.00022781,3.339e-05,0.0,0 STARLINK-3156,1 49458U 21104BC  22354.56613230  .00003339  00000-0  22781-3 0  9991,2 49458  53.2152  94.4584 0002582  54.8745 305.2489 15.08842308 61371,6917.873000000001,95.437,541.525,537.952,0.0
49458.0,STARLINK-3156,PAYLOAD,2022-12-21 13:26:01,15.08833935,0.0002506,53.2159,90.0007,56.6479,303.4753,-1.5098e-05,-5.29e-06,0.0,0 STARLINK-3156,1 49458U 21104BC  22355.55973869 -.00000529  00000-0 -15098-4 0  9992,2 49458  53.2159  90.0007 0002506  56.6479 303.4753 15.08833935 61527,6917.899,95.438,541.498,538.03,0.0
49458.0,STARLINK-3156,PAYLOAD,2022-12-21 22:58:20,15.0884646,0.0002451,53.2155,88.2151,55.3422,304.7801,0.00045008,6.883e-05,0.0,0 STARLINK-3156,1 49458U 21104BC  22355.95717608  .00006883  00000-0  45008-3 0  9993,2 49458  53.2155  88.2151 0002451  55.3422 304.7801 15.08846460 62666,6917.861,95.437,541.4209999999998,538.03,0.0
49458.0,STARLINK-3156,PAYLOAD,2022-12-22 13:16:48,15.08845956,0.0002241,53.2152,85.539,55.6676,304.4528,0.00067102,0.00010409,0.0,0 STARLINK-3156,1 49458U 21104BC  22356.55333503  .00010409  00000-0  67102-3 0  9996,2 49458  53.2152  85.5390 0002241  55.6676 304.4528 15.08845956 61671,6917.861999999999,95.437,541.2769999999998,538.177,0.0
49458.0,STARLINK-3156,PAYLOAD,2022-12-22 16:27:34,15.08839588,0.0002149,53.2154,84.9436,54.4958,305.6235,0.00024395,3.596e-05,0.0,0 STARLINK-3156,1 49458U 21104BC  22356.68581578  .00003596  00000-0  24395-3 0  9993,2 49458  53.2154  84.9436 0002149  54.4958 305.6235 15.08839588 62778,6917.882,95.438,541.2330000000002,538.26,0.0
49458.0,STARLINK-3156,PAYLOAD,2022-12-22 18:02:57,15.08839884,0.0002017,53.2157,84.6461,54.7339,305.3841,0.00013898,1.924e-05,0.0,0 STARLINK-3156,1 49458U 21104BC  22356.75205546  .00001924  00000-0  13898-3 0  9998,2 49458  53.2157  84.6461 0002017  54.7339 305.3841 15.08839884 61707,6917.880999999999,95.438,541.141,538.35,0.0
49458.0,STARLINK-3156,PAYLOAD,2022-12-23 13:07:35,15.08835159,0.0002011,53.2153,81.0785,55.4397,304.6785,0.00013154,1.806e-05,0.0,0 STARLINK-3156,1 49458U 21104BC  22357.54693786  .00001806  00000-0  13154-3 0  9997,2 49458  53.2153  81.0785 0002011  55.4397 304.6785 15.08835159 61822,6917.895,95.438,541.151,538.369,0.0
49458.0,STARLINK-3156,PAYLOAD,2022-12-23 16:18:21,15.08838694,0.0002028,53.2151,80.4839,53.24,306.8778,0.00012374,1.682e-05,0.0,0 STARLINK-3156,1 49458U 21104BC  22357.67941807  .00001682  00000-0  12374-3 0  9996,2 49458  53.2151  80.4839 0002028  53.2400 306.8778 15.08838694 62927,6917.884,95.438,541.1519999999998,538.346,0.0
49458.0,STARLINK-3156,PAYLOAD,2022-12-23 17:53:44,15.08839332,0.0002046,53.2151,80.1866,51.8595,308.2581,0.00016608,2.356e-05,0.0,0 STARLINK-3156,1 49458U 21104BC  22357.74565836  .00002356  00000-0  16608-3 0  9991,2 49458  53.2151  80.1866 0002046  51.8595 308.2581 15.08839332 61852,6917.882,95.438,541.163,538.332,0.0
49458.0,STARLINK-3156,PAYLOAD,2022-12-24 05:01:26,15.08850843,0.0001964,53.2148,78.1053,50.9766,309.14,0.00078662,0.00012257,0.0,0 STARLINK-3156,1 49458U 21104BC  22358.20933655  .00012257  00000-0  78662-3 0  9990,2 49458  53.2148  78.1053 0001964  50.9766 309.1400 15.08850843 63000,6917.847,95.437,541.071,538.354,0.0
49458.0,STARLINK-3156,PAYLOAD,2022-12-24 17:44:31,15.0885221,0.0002009,53.2146,75.7261,51.01600000000001,309.101,0.00042467,6.479e-05,0.0,0 STARLINK-3156,1 49458U 21104BC  22358.73925390  .00006479  00000-0  42467-3 0  9998,2 49458  53.2146  75.7261 0002009  51.0160 309.1010 15.08852210 63088,6917.843000000003,95.437,541.0980000000002,538.318,0.0
49458.0,STARLINK-3156,PAYLOAD,2022-12-25 11:13:45,15.08853618,0.0002498,53.2149,72.4551,57.4774,302.6459,0.00029421,4.399e-05,0.0,0 STARLINK-3156,1 49458U 21104BC  22359.46789032  .00004399  00000-0  29421-3 0  9994,2 49458  53.2149  72.4551 0002498  57.4774 302.6459 15.08853618 63190,6917.839,95.437,541.432,537.976,0.0
49458.0,STARLINK-3156,PAYLOAD,2022-12-25 12:49:09,15.08839826,0.0001595,53.2149,72.1573,45.624,314.4882,-1.2816e-05,-4.92e-06,0.0,0 STARLINK-3156,1 49458U 21104BC  22359.53413273 -.00000492  00000-0 -12816-4 0  9996,2 49458  53.2149  72.1573 0001595  45.6240 314.4882 15.08839826 63203,6917.880999999999,95.438,540.849,538.643,0.0
49458.0,STARLINK-3156,PAYLOAD,2022-12-26 07:53:46,15.08841633,0.000173,53.2153,68.5882,47.0623,313.0514,6.898e-05,8.1e-06,0.0,0 STARLINK-3156,1 49458U 21104BC  22360.32901417  .00000810  00000-0  68980-4 0  9992,2 49458  53.2153  68.5882 0001730  47.0623 313.0514 15.08841633 62241,6917.875,95.437,540.937,538.544,0.0
49458.0,STARLINK-3156,PAYLOAD,2022-12-26 14:15:19,15.08848521,0.0001977,53.2146,67.3993,49.8118,310.3047,0.00025192,3.724e-05,0.0,0 STARLINK-3156,1 49458U 21104BC  22360.59397291  .00003724  00000-0  25192-3 0  9994,2 49458  53.2146  67.3993 0001977  49.8118 310.3047 15.08848521 63363,6917.854,95.437,541.087,538.352,0.0
49458.0,STARLINK-3156,PAYLOAD,2022-12-27 10:55:19,15.08863847,0.0001927,53.215,63.5331,42.4506,317.6634,0.00058862,9.098e-05,0.0,0 STARLINK-3156,1 49458U 21104BC  22361.45508320  .00009098  00000-0  58862-3 0  9997,2 49458  53.2150  63.5331 0001927  42.4506 317.6634 15.08863847 62412,6917.807,95.436,541.006,538.339,0.0
49458.0,STARLINK-3156,PAYLOAD,2022-12-27 23:38:23,15.08869911,0.0001986,53.2151,61.1542,44.2976,315.8175,0.00049543,7.612e-05,0.0,0 STARLINK-3156,1 49458U 21104BC  22361.98499446  .00007612  00000-0  49543-3 0  9999,2 49458  53.2151  61.1542 0001986  44.2976 315.8175 15.08869911 62493,6917.7890000000025,95.436,541.028,538.28,0.0
49458.0,STARLINK-3156,PAYLOAD,2022-12-29 04:15:20,15.08827076,0.0001868,53.2147,55.8006,41.5917,318.5216,-0.00021372,-3.687e-05,0.0,0 STARLINK-3156,1 49458U 21104BC  22363.17732375 -.00003687  00000-0 -21372-3 0  9993,2 49458  53.2147  55.8006 0001868  41.5917 318.5216 15.08827076 63759,6917.92,95.438,541.077,538.493,0.0
49458.0,STARLINK-3156,PAYLOAD,2022-12-29 13:47:40,15.08810665,0.0001621999999999,53.2162,54.0196,63.1223,296.9935,-0.00022413,-3.85e-05,0.0,0 STARLINK-3156,1 49458U 21104BC  22363.57477372 -.00003850  00000-0 -22413-3 0  9999,2 49458  53.2162  54.0196 0001622  63.1223 296.9935 15.08810665 63815,6917.97,95.439,540.957,538.7130000000002,0.0
49458.0,STARLINK-3156,PAYLOAD,2022-12-30 10:27:41,15.08838618,0.0002005999999999,53.2155,50.1512,37.3957,322.7175,0.00022915,3.361e-05,0.0,0 STARLINK-3156,1 49458U 21104BC  22364.43589770  .00003361  00000-0  22915-3 0  9993,2 49458  53.2155  50.1512 0002006  37.3957 322.7175 15.08838618 63946,6917.885,95.438,541.137,538.362,0.0
49458.0,STARLINK-3156,PAYLOAD,2022-12-30 12:03:04,15.08838368,0.0001956999999999,53.2154,49.8533,44.3757,315.7392,0.00034116,5.145e-05,0.0,0 STARLINK-3156,1 49458U 21104BC  22364.50213989  .00005145  00000-0  34116-3 0  9995,2 49458  53.2154  49.8533 0001957  44.3757 315.7392 15.08838368 62879,6917.885,95.438,541.104,538.3969999999998,0.0
